CCSDS_OMM_VERS = 2.0
CREATION_DATE  = 
ORIGINATOR     = 

OBJECT_NAME    = SL-3 R/B
OBJECT_ID      = 1982-079B
CENTER_NAME    = EARTH
REF_FRAME      = TEME
TIME_SYSTEM    = UTC
MEAN_ELEMENT_THEORY = SGP/SGP4

EPOCH          = 2026-01-27T18:36:35.079264
MEAN_MOTION    = 15.24215420
ECCENTRICITY   = .0024482
INCLINATION    = 81.1449
RA_OF_ASC_NODE = 241.3721
ARG_OF_PERICENTER = 306.3426
MEAN_ANOMALY   = 53.5547

EPHEMERIS_TYPE = 0
CLASSIFICATION_TYPE = U
NORAD_CAT_ID   = 13403
ELEMENT_SET_NO = 999
REV_AT_EPOCH   = 37146
BSTAR          = .29653E-3
MEAN_MOTION_DOT = .7314E-4
MEAN_MOTION_DDOT = 0

CCSDS_OMM_VERS = 2.0
CREATION_DATE  = 
ORIGINATOR     = 

OBJECT_NAME    = SL-14 R/B
OBJECT_ID      = 1982-092B
CENTER_NAME    = EARTH
REF_FRAME      = TEME
TIME_SYSTEM    = UTC
MEAN_ELEMENT_THEORY = SGP/SGP4

EPOCH          = 2026-01-27T12:28:27.424704
MEAN_MOTION    = 14.86615848
ECCENTRICITY   = .00218312
INCLINATION    = 82.5687
RA_OF_ASC_NODE = 179.8951
ARG_OF_PERICENTER = 78.7048
MEAN_ANOMALY   = 347.9737

EPHEMERIS_TYPE = 0
CLASSIFICATION_TYPE = U
NORAD_CAT_ID   = 13553
ELEMENT_SET_NO = 999
REV_AT_EPOCH   = 32281
BSTAR          = .10952336E-3
MEAN_MOTION_DOT = .1E-4
MEAN_MOTION_DDOT = 0

CCSDS_OMM_VERS = 2.0
CREATION_DATE  = 
ORIGINATOR     = 

OBJECT_NAME    = SL-3 R/B
OBJECT_ID      = 1983-010B
CENTER_NAME    = EARTH
REF_FRAME      = TEME
TIME_SYSTEM    = UTC
MEAN_ELEMENT_THEORY = SGP/SGP4

EPOCH          = 2026-01-27T12:30:44.215776
MEAN_MOTION    = 15.44912709
ECCENTRICITY   = .0016935
INCLINATION    = 81.1024
RA_OF_ASC_NODE = 52.6710
ARG_OF_PERICENTER = 185.0468
MEAN_ANOMALY   = 175.0609

EPHEMERIS_TYPE = 0
CLASSIFICATION_TYPE = U
NORAD_CAT_ID   = 13819
ELEMENT_SET_NO = 999
REV_AT_EPOCH   = 35158
BSTAR          = .38905E-3
MEAN_MOTION_DOT = .18431E-3
MEAN_MOTION_DDOT = 0

CCSDS_OMM_VERS = 2.0
CREATION_DATE  = 
ORIGINATOR     = 

OBJECT_NAME    = SL-3 R/B
OBJECT_ID      = 1983-075B
CENTER_NAME    = EARTH
REF_FRAME      = TEME
TIME_SYSTEM    = UTC
MEAN_ELEMENT_THEORY = SGP/SGP4

EPOCH          = 2026-01-27T18:14:32.899200
MEAN_MOTION    = 15.37312682
ECCENTRICITY   = .0022891
INCLINATION    = 97.6127
RA_OF_ASC_NODE = 30.8316
ARG_OF_PERICENTER = 21.4177
MEAN_ANOMALY   = 338.8020

EPHEMERIS_TYPE = 0
CLASSIFICATION_TYPE = U
NORAD_CAT_ID   = 14208
ELEMENT_SET_NO = 999
REV_AT_EPOCH   = 32386
BSTAR          = .45945E-3
MEAN_MOTION_DOT = .16875E-3
MEAN_MOTION_DDOT = 0

CCSDS_OMM_VERS = 2.0
CREATION_DATE  = 
ORIGINATOR     = 

OBJECT_NAME    = COSMOS 1536
OBJECT_ID      = 1984-013A
CENTER_NAME    = EARTH
REF_FRAME      = TEME
TIME_SYSTEM    = UTC
MEAN_ELEMENT_THEORY = SGP/SGP4

EPOCH          = 2026-01-27T19:15:07.988256
MEAN_MOTION    = 15.23243796
ECCENTRICITY   = .0015577
INCLINATION    = 82.5468
RA_OF_ASC_NODE = 148.4632
ARG_OF_PERICENTER = 68.9673
MEAN_ANOMALY   = 291.3228

EPHEMERIS_TYPE = 0
CLASSIFICATION_TYPE = U
NORAD_CAT_ID   = 14699
ELEMENT_SET_NO = 999
REV_AT_EPOCH   = 26639
BSTAR          = .44483E-3
MEAN_MOTION_DOT = .10604E-3
MEAN_MOTION_DDOT = 0

CCSDS_OMM_VERS = 2.0
CREATION_DATE  = 
ORIGINATOR     = 

OBJECT_NAME    = SL-14 R/B
OBJECT_ID      = 1984-027B
CENTER_NAME    = EARTH
REF_FRAME      = TEME
TIME_SYSTEM    = UTC
MEAN_ELEMENT_THEORY = SGP/SGP4

EPOCH          = 2026-01-27T16:25:03.956448
MEAN_MOTION    = 14.85934142
ECCENTRICITY   = .0019457
INCLINATION    = 82.5420
RA_OF_ASC_NODE = 283.4766
ARG_OF_PERICENTER = 107.6247
MEAN_ANOMALY   = 252.7096

EPHEMERIS_TYPE = 0
CLASSIFICATION_TYPE = U
NORAD_CAT_ID   = 14820
ELEMENT_SET_NO = 999
REV_AT_EPOCH   = 24154
BSTAR          = .82407E-4
MEAN_MOTION_DOT = .746E-5
MEAN_MOTION_DDOT = 0

CCSDS_OMM_VERS = 2.0
CREATION_DATE  = 
ORIGINATOR     = 

OBJECT_NAME    = SL-8 R/B
OBJECT_ID      = 1985-006B
CENTER_NAME    = EARTH
REF_FRAME      = TEME
TIME_SYSTEM    = UTC
MEAN_ELEMENT_THEORY = SGP/SGP4

EPOCH          = 2026-01-27T19:22:36.698016
MEAN_MOTION    = 14.37759954
ECCENTRICITY   = .0019746
INCLINATION    = 74.0475
RA_OF_ASC_NODE = 336.3719
ARG_OF_PERICENTER = 261.4710
MEAN_ANOMALY   = 123.0132

EPHEMERIS_TYPE = 0
CLASSIFICATION_TYPE = U
NORAD_CAT_ID   = 15483
ELEMENT_SET_NO = 999
REV_AT_EPOCH   = 14815
BSTAR          = .18118E-3
MEAN_MOTION_DOT = .52E-5
MEAN_MOTION_DDOT = 0

CCSDS_OMM_VERS = 2.0
CREATION_DATE  = 
ORIGINATOR     = 

OBJECT_NAME    = SL-12 R/B(2)
OBJECT_ID      = 1985-042D
CENTER_NAME    = EARTH
REF_FRAME      = TEME
TIME_SYSTEM    = UTC
MEAN_ELEMENT_THEORY = SGP/SGP4

EPOCH          = 2026-01-27T16:08:48.934176
MEAN_MOTION    = 14.21968886
ECCENTRICITY   = .0035685
INCLINATION    = 71.1076
RA_OF_ASC_NODE = 174.3818
ARG_OF_PERICENTER = 193.0816
MEAN_ANOMALY   = 178.6808

EPHEMERIS_TYPE = 0
CLASSIFICATION_TYPE = U
NORAD_CAT_ID   = 15772
ELEMENT_SET_NO = 999
REV_AT_EPOCH   = 10856
BSTAR          = .12623E-3
MEAN_MOTION_DOT = .233E-5
MEAN_MOTION_DDOT = 0

CCSDS_OMM_VERS = 2.0
CREATION_DATE  = 
ORIGINATOR     = 

OBJECT_NAME    = SL-14 R/B
OBJECT_ID      = 1985-069B
CENTER_NAME    = EARTH
REF_FRAME      = TEME
TIME_SYSTEM    = UTC
MEAN_ELEMENT_THEORY = SGP/SGP4

EPOCH          = 2026-01-27T11:30:13.479552
MEAN_MOTION    = 14.86383329
ECCENTRICITY   = .00180287
INCLINATION    = 82.5243
RA_OF_ASC_NODE = 63.6951
ARG_OF_PERICENTER = 333.3557
MEAN_ANOMALY   = 26.6731

EPHEMERIS_TYPE = 0
CLASSIFICATION_TYPE = U
NORAD_CAT_ID   = 15945
ELEMENT_SET_NO = 999
REV_AT_EPOCH   = 16671
BSTAR          = .86630232E-4
MEAN_MOTION_DOT = .79E-5
MEAN_MOTION_DDOT = 0

CCSDS_OMM_VERS = 2.0
CREATION_DATE  = 
ORIGINATOR     = 

OBJECT_NAME    = SL-16 R/B
OBJECT_ID      = 1985-097B
CENTER_NAME    = EARTH
REF_FRAME      = TEME
TIME_SYSTEM    = UTC
MEAN_ELEMENT_THEORY = SGP/SGP4

EPOCH          = 2026-01-27T06:38:04.295040
MEAN_MOTION    = 14.16591378
ECCENTRICITY   = .000906
INCLINATION    = 71.0000
RA_OF_ASC_NODE = 227.7369
ARG_OF_PERICENTER = 308.5413
MEAN_ANOMALY   = 224.8614

EPHEMERIS_TYPE = 0
CLASSIFICATION_TYPE = U
NORAD_CAT_ID   = 16182
ELEMENT_SET_NO = 999
REV_AT_EPOCH   = 8136
BSTAR          = .98905E-4
MEAN_MOTION_DOT = .149E-5
MEAN_MOTION_DDOT = 0

CCSDS_OMM_VERS = 2.0
CREATION_DATE  = 
ORIGINATOR     = 

OBJECT_NAME    = SL-14 R/B
OBJECT_ID      = 1986-006B
CENTER_NAME    = EARTH
REF_FRAME      = TEME
TIME_SYSTEM    = UTC
MEAN_ELEMENT_THEORY = SGP/SGP4

EPOCH          = 2026-01-27T17:40:20.975232
MEAN_MOTION    = 14.86751833
ECCENTRICITY   = .0077886
INCLINATION    = 82.5283
RA_OF_ASC_NODE = 298.2790
ARG_OF_PERICENTER = 49.2211
MEAN_ANOMALY   = 311.5729

EPHEMERIS_TYPE = 0
CLASSIFICATION_TYPE = U
NORAD_CAT_ID   = 16496
ELEMENT_SET_NO = 999
REV_AT_EPOCH   = 14312
BSTAR          = .1318E-3
MEAN_MOTION_DOT = .1267E-4
MEAN_MOTION_DDOT = 0

CCSDS_OMM_VERS = 2.0
CREATION_DATE  = 
ORIGINATOR     = 

OBJECT_NAME    = COSMOS 1743
OBJECT_ID      = 1986-034A
CENTER_NAME    = EARTH
REF_FRAME      = TEME
TIME_SYSTEM    = UTC
MEAN_ELEMENT_THEORY = SGP/SGP4

EPOCH          = 2026-01-27T16:53:27.367008
MEAN_MOTION    = 15.55510745
ECCENTRICITY   = .000545
INCLINATION    = 82.5353
RA_OF_ASC_NODE = 116.7401
ARG_OF_PERICENTER = 87.2940
MEAN_ANOMALY   = 272.8938

EPHEMERIS_TYPE = 0
CLASSIFICATION_TYPE = U
NORAD_CAT_ID   = 16719
ELEMENT_SET_NO = 999
REV_AT_EPOCH   = 17387
BSTAR          = .63865E-3
MEAN_MOTION_DOT = .43834E-3
MEAN_MOTION_DDOT = 0

